KUIPER-00152            
1 65772U 25217L   25287.88333922  .00034730  00000+0  94643-3 0  9991
2 65772  51.8745 348.7826 0002447  77.6529 282.4731 15.37148660  2998
KUIPER-00153            
1 65773U 25217M   25287.65065208  .00019294  00000+0  57076-3 0  9993
2 65773  51.8650 350.2171 0008371 173.3481 186.7618 15.34891872  2951
KUIPER-00155            
1 65774U 25217N   25287.64137382  .00028116  00000+0  80612-3 0  9991
2 65774  51.8685 350.1613 0005458 159.1829 200.9380 15.35662694  2955
KUIPER-00156            
1 65775U 25217P   25287.69212198  .00017198  00000+0  48014-3 0  9994
2 65775  51.8748 349.7525 0002588 103.5785 256.5489 15.36818257  2964
KUIPER-00158            
1 65776U 25217Q   25287.63866342  .00029200  00000+0  83060-3 0  9992
2 65776  51.8725 350.1459 0005099 153.9491 206.1753 15.35892383  2950
KUIPER-00163            
1 65777U 25217R   25287.90929871  .00036847  00000+0  10715-2 0  9991
2 65777  51.8644 348.9491 0007924 174.8134 185.2935 15.35068363  2993
KUIPER-00165            
1 65778U 25217S   25287.69852610  .00021141  00000+0  59720-3 0  9995
2 65778  51.8728 349.7972 0004095 126.9797 233.1564 15.36302066  2969
KUIPER-00166            
1 65779U 25217T   25287.88985467  .00028521  00000+0  79299-3 0  9996
2 65779  51.8739 348.8297 0003254 112.3044 247.8288 15.36623266  2998
