<?xml version="1.0" encoding="UTF-8"?>
<ndm xmlns:xsi="http://www.w3.org/2001/XMLSchema-instance" xsi:noNamespaceSchemaLocation="https://sanaregistry.org/r/ndmxml_unqualified/ndmxml-2.0.0-master-2.0.xsd">
<omm id="CCSDS_OMM_VERS" version="2.0">
<header><CREATION_DATE/><ORIGINATOR/></header><body><segment><metadata><OBJECT_NAME>KUIPER-00152</OBJECT_NAME><OBJECT_ID>2025-217L</OBJECT_ID><CENTER_NAME>EARTH</CENTER_NAME><REF_FRAME>TEME</REF_FRAME><TIME_SYSTEM>UTC</TIME_SYSTEM><MEAN_ELEMENT_THEORY>SGP4</MEAN_ELEMENT_THEORY></metadata><data><meanElements><EPOCH>2025-10-14T21:12:00.508608</EPOCH><MEAN_MOTION>15.37148660</MEAN_MOTION><ECCENTRICITY>.0002447</ECCENTRICITY><INCLINATION>51.8745</INCLINATION><RA_OF_ASC_NODE>348.7826</RA_OF_ASC_NODE><ARG_OF_PERICENTER>77.6529</ARG_OF_PERICENTER><MEAN_ANOMALY>282.4731</MEAN_ANOMALY></meanElements><tleParameters><EPHEMERIS_TYPE>0</EPHEMERIS_TYPE><CLASSIFICATION_TYPE>U</CLASSIFICATION_TYPE><NORAD_CAT_ID>65772</NORAD_CAT_ID><ELEMENT_SET_NO>999</ELEMENT_SET_NO><REV_AT_EPOCH>299</REV_AT_EPOCH><BSTAR>.94642858E-3</BSTAR><MEAN_MOTION_DOT>.3473E-3</MEAN_MOTION_DOT><MEAN_MOTION_DDOT>0</MEAN_MOTION_DDOT></tleParameters></data></segment></body></omm>
<omm id="CCSDS_OMM_VERS" version="2.0">
<header><CREATION_DATE/><ORIGINATOR/></header><body><segment><metadata><OBJECT_NAME>KUIPER-00153</OBJECT_NAME><OBJECT_ID>2025-217M</OBJECT_ID><CENTER_NAME>EARTH</CENTER_NAME><REF_FRAME>TEME</REF_FRAME><TIME_SYSTEM>UTC</TIME_SYSTEM><MEAN_ELEMENT_THEORY>SGP4</MEAN_ELEMENT_THEORY></metadata><data><meanElements><EPOCH>2025-10-14T15:36:56.339712</EPOCH><MEAN_MOTION>15.34891872</MEAN_MOTION><ECCENTRICITY>.00083717</ECCENTRICITY><INCLINATION>51.8650</INCLINATION><RA_OF_ASC_NODE>350.2171</RA_OF_ASC_NODE><ARG_OF_PERICENTER>173.3481</ARG_OF_PERICENTER><MEAN_ANOMALY>186.7618</MEAN_ANOMALY></meanElements><tleParameters><EPHEMERIS_TYPE>0</EPHEMERIS_TYPE><CLASSIFICATION_TYPE>U</CLASSIFICATION_TYPE><NORAD_CAT_ID>65773</NORAD_CAT_ID><ELEMENT_SET_NO>999</ELEMENT_SET_NO><REV_AT_EPOCH>295</REV_AT_EPOCH><BSTAR>.57075706E-3</BSTAR><MEAN_MOTION_DOT>.19294E-3</MEAN_MOTION_DOT><MEAN_MOTION_DDOT>0</MEAN_MOTION_DDOT></tleParameters></data></segment></body></omm>
<omm id="CCSDS_OMM_VERS" version="2.0">
<header><CREATION_DATE/><ORIGINATOR/></header><body><segment><metadata><OBJECT_NAME>KUIPER-00155</OBJECT_NAME><OBJECT_ID>2025-217N</OBJECT_ID><CENTER_NAME>EARTH</CENTER_NAME><REF_FRAME>TEME</REF_FRAME><TIME_SYSTEM>UTC</TIME_SYSTEM><MEAN_ELEMENT_THEORY>SGP4</MEAN_ELEMENT_THEORY></metadata><data><meanElements><EPOCH>2025-10-14T15:23:34.698048</EPOCH><MEAN_MOTION>15.35662694</MEAN_MOTION><ECCENTRICITY>.00054586</ECCENTRICITY><INCLINATION>51.8685</INCLINATION><RA_OF_ASC_NODE>350.1613</RA_OF_ASC_NODE><ARG_OF_PERICENTER>159.1829</ARG_OF_PERICENTER><MEAN_ANOMALY>200.9380</MEAN_ANOMALY></meanElements><tleParameters><EPHEMERIS_TYPE>0</EPHEMERIS_TYPE><CLASSIFICATION_TYPE>U</CLASSIFICATION_TYPE><NORAD_CAT_ID>65774</NORAD_CAT_ID><ELEMENT_SET_NO>999</ELEMENT_SET_NO><REV_AT_EPOCH>295</REV_AT_EPOCH><BSTAR>.80612055E-3</BSTAR><MEAN_MOTION_DOT>.28116E-3</MEAN_MOTION_DOT><MEAN_MOTION_DDOT>0</MEAN_MOTION_DDOT></tleParameters></data></segment></body></omm>
<omm id="CCSDS_OMM_VERS" version="2.0">
<header><CREATION_DATE/><ORIGINATOR/></header><body><segment><metadata><OBJECT_NAME>KUIPER-00156</OBJECT_NAME><OBJECT_ID>2025-217P</OBJECT_ID><CENTER_NAME>EARTH</CENTER_NAME><REF_FRAME>TEME</REF_FRAME><TIME_SYSTEM>UTC</TIME_SYSTEM><MEAN_ELEMENT_THEORY>SGP4</MEAN_ELEMENT_THEORY></metadata><data><meanElements><EPOCH>2025-10-14T16:36:39.339072</EPOCH><MEAN_MOTION>15.36818257</MEAN_MOTION><ECCENTRICITY>.00025884</ECCENTRICITY><INCLINATION>51.8748</INCLINATION><RA_OF_ASC_NODE>349.7525</RA_OF_ASC_NODE><ARG_OF_PERICENTER>103.5785</ARG_OF_PERICENTER><MEAN_ANOMALY>256.5489</MEAN_ANOMALY></meanElements><tleParameters><EPHEMERIS_TYPE>0</EPHEMERIS_TYPE><CLASSIFICATION_TYPE>U</CLASSIFICATION_TYPE><NORAD_CAT_ID>65775</NORAD_CAT_ID><ELEMENT_SET_NO>999</ELEMENT_SET_NO><REV_AT_EPOCH>296</REV_AT_EPOCH><BSTAR>.48013794E-3</BSTAR><MEAN_MOTION_DOT>.17198E-3</MEAN_MOTION_DOT><MEAN_MOTION_DDOT>0</MEAN_MOTION_DDOT></tleParameters></data></segment></body></omm>
<omm id="CCSDS_OMM_VERS" version="2.0">
<header><CREATION_DATE/><ORIGINATOR/></header><body><segment><metadata><OBJECT_NAME>KUIPER-00158</OBJECT_NAME><OBJECT_ID>2025-217Q</OBJECT_ID><CENTER_NAME>EARTH</CENTER_NAME><REF_FRAME>TEME</REF_FRAME><TIME_SYSTEM>UTC</TIME_SYSTEM><MEAN_ELEMENT_THEORY>SGP4</MEAN_ELEMENT_THEORY></metadata><data><meanElements><EPOCH>2025-10-14T15:19:40.519488</EPOCH><MEAN_MOTION>15.35892383</MEAN_MOTION><ECCENTRICITY>.00050996</ECCENTRICITY><INCLINATION>51.8725</INCLINATION><RA_OF_ASC_NODE>350.1459</RA_OF_ASC_NODE><ARG_OF_PERICENTER>153.9491</ARG_OF_PERICENTER><MEAN_ANOMALY>206.1753</MEAN_ANOMALY></meanElements><tleParameters><EPHEMERIS_TYPE>0</EPHEMERIS_TYPE><CLASSIFICATION_TYPE>U</CLASSIFICATION_TYPE><NORAD_CAT_ID>65776</NORAD_CAT_ID><ELEMENT_SET_NO>999</ELEMENT_SET_NO><REV_AT_EPOCH>295</REV_AT_EPOCH><BSTAR>.83059717E-3</BSTAR><MEAN_MOTION_DOT>.292E-3</MEAN_MOTION_DOT><MEAN_MOTION_DDOT>0</MEAN_MOTION_DDOT></tleParameters></data></segment></body></omm>
<omm id="CCSDS_OMM_VERS" version="2.0">
<header><CREATION_DATE/><ORIGINATOR/></header><body><segment><metadata><OBJECT_NAME>KUIPER-00163</OBJECT_NAME><OBJECT_ID>2025-217R</OBJECT_ID><CENTER_NAME>EARTH</CENTER_NAME><REF_FRAME>TEME</REF_FRAME><TIME_SYSTEM>UTC</TIME_SYSTEM><MEAN_ELEMENT_THEORY>SGP4</MEAN_ELEMENT_THEORY></metadata><data><meanElements><EPOCH>2025-10-14T21:49:23.408544</EPOCH><MEAN_MOTION>15.35068363</MEAN_MOTION><ECCENTRICITY>.00079249</ECCENTRICITY><INCLINATION>51.8644</INCLINATION><RA_OF_ASC_NODE>348.9491</RA_OF_ASC_NODE><ARG_OF_PERICENTER>174.8134</ARG_OF_PERICENTER><MEAN_ANOMALY>185.2935</MEAN_ANOMALY></meanElements><tleParameters><EPHEMERIS_TYPE>0</EPHEMERIS_TYPE><CLASSIFICATION_TYPE>U</CLASSIFICATION_TYPE><NORAD_CAT_ID>65777</NORAD_CAT_ID><ELEMENT_SET_NO>999</ELEMENT_SET_NO><REV_AT_EPOCH>299</REV_AT_EPOCH><BSTAR>.10714534E-2</BSTAR><MEAN_MOTION_DOT>.36847E-3</MEAN_MOTION_DOT><MEAN_MOTION_DDOT>0</MEAN_MOTION_DDOT></tleParameters></data></segment></body></omm>
<omm id="CCSDS_OMM_VERS" version="2.0">
<header><CREATION_DATE/><ORIGINATOR/></header><body><segment><metadata><OBJECT_NAME>KUIPER-00165</OBJECT_NAME><OBJECT_ID>2025-217S</OBJECT_ID><CENTER_NAME>EARTH</CENTER_NAME><REF_FRAME>TEME</REF_FRAME><TIME_SYSTEM>UTC</TIME_SYSTEM><MEAN_ELEMENT_THEORY>SGP4</MEAN_ELEMENT_THEORY></metadata><data><meanElements><EPOCH>2025-10-14T16:45:52.655040</EPOCH><MEAN_MOTION>15.36302066</MEAN_MOTION><ECCENTRICITY>.00040958</ECCENTRICITY><INCLINATION>51.8728</INCLINATION><RA_OF_ASC_NODE>349.7972</RA_OF_ASC_NODE><ARG_OF_PERICENTER>126.9797</ARG_OF_PERICENTER><MEAN_ANOMALY>233.1564</MEAN_ANOMALY></meanElements><tleParameters><EPHEMERIS_TYPE>0</EPHEMERIS_TYPE><CLASSIFICATION_TYPE>U</CLASSIFICATION_TYPE><NORAD_CAT_ID>65778</NORAD_CAT_ID><ELEMENT_SET_NO>999</ELEMENT_SET_NO><REV_AT_EPOCH>296</REV_AT_EPOCH><BSTAR>.59719888E-3</BSTAR><MEAN_MOTION_DOT>.21141E-3</MEAN_MOTION_DOT><MEAN_MOTION_DDOT>0</MEAN_MOTION_DDOT></tleParameters></data></segment></body></omm>
<omm id="CCSDS_OMM_VERS" version="2.0">
<header><CREATION_DATE/><ORIGINATOR/></header><body><segment><metadata><OBJECT_NAME>KUIPER-00166</OBJECT_NAME><OBJECT_ID>2025-217T</OBJECT_ID><CENTER_NAME>EARTH</CENTER_NAME><REF_FRAME>TEME</REF_FRAME><TIME_SYSTEM>UTC</TIME_SYSTEM><MEAN_ELEMENT_THEORY>SGP4</MEAN_ELEMENT_THEORY></metadata><data><meanElements><EPOCH>2025-10-14T21:21:23.443488</EPOCH><MEAN_MOTION>15.36623266</MEAN_MOTION><ECCENTRICITY>.00032546</ECCENTRICITY><INCLINATION>51.8739</INCLINATION><RA_OF_ASC_NODE>348.8297</RA_OF_ASC_NODE><ARG_OF_PERICENTER>112.3044</ARG_OF_PERICENTER><MEAN_ANOMALY>247.8288</MEAN_ANOMALY></meanElements><tleParameters><EPHEMERIS_TYPE>0</EPHEMERIS_TYPE><CLASSIFICATION_TYPE>U</CLASSIFICATION_TYPE><NORAD_CAT_ID>65779</NORAD_CAT_ID><ELEMENT_SET_NO>999</ELEMENT_SET_NO><REV_AT_EPOCH>299</REV_AT_EPOCH><BSTAR>.79299181E-3</BSTAR><MEAN_MOTION_DOT>.28521E-3</MEAN_MOTION_DOT><MEAN_MOTION_DDOT>0</MEAN_MOTION_DDOT></tleParameters></data></segment></body></omm>

</ndm>
